{
  "type": "FeatureCollection",
  "features": [
    {
      "type": "Feature",
      "properties": {
        "norad_id": 34468,
        "name": "COSMOS 2251 DEB",
        "group": "cosmos-2251-debris",
        "lat": 72.90447480724998,
        "lon": -153.4267887573817,
        "alt_km": 768.4422518092824,
        "timestamp": "2025-12-24T09:46:31.399363+00:00",
        "meta_object_name": "COSMOS 2251 DEB",
        "meta_object_id": "1993-036TM",
        "meta_epoch": "2025-12-23T23:22:33.866976",
        "meta_mean_motion": 14.47653648,
        "meta_eccentricity": 0.0076271,
        "meta_inclination": 74.013,
        "meta_ra_of_asc_node": 96.1572,
        "meta_arg_of_pericenter": 238.8195,
        "meta_mean_anomaly": 120.5471,
        "meta_ephemeris_type": 0,
        "meta_classification_type": "U",
        "meta_norad_cat_id": 34468,
        "meta_element_set_no": 999,
        "meta_rev_at_epoch": 88624,
        "meta_bstar": 0.00034105,
        "meta_mean_motion_dot": 1.275e-05,
        "meta_mean_motion_ddot": 0,
        "tle_line1": "1 34468U 93036TM  25357.97400309  .00001275  00000+0  34105-3 0  9990",
        "tle_line2": "2 34468  74.0130  96.1572 0076271 238.8195 120.5471 14.47653648886247"
      },
      "geometry": {
        "type": "Point",
        "coordinates": [
          -153.4267887573817,
          72.90447480724998
        ]
      }
    },
    {
      "type": "Feature",
      "properties": {
        "norad_id": 34472,
        "name": "COSMOS 2251 DEB",
        "group": "cosmos-2251-debris",
        "lat": 62.44917550628198,
        "lon": -134.1987781055276,
        "alt_km": 1003.6901108082493,
        "timestamp": "2025-12-24T09:46:31.399373+00:00",
        "meta_object_name": "COSMOS 2251 DEB",
        "meta_object_id": "1993-036TR",
        "meta_epoch": "2025-12-23T15:40:46.435008",
        "meta_mean_motion": 13.70348923,
        "meta_eccentricity": 0.03277595,
        "meta_inclination": 74.0847,
        "meta_ra_of_asc_node": 80.196,
        "meta_arg_of_pericenter": 208.8312,
        "meta_mean_anomaly": 149.435,
        "meta_ephemeris_type": 0,
        "meta_classification_type": "U",
        "meta_norad_cat_id": 34472,
        "meta_element_set_no": 999,
        "meta_rev_at_epoch": 83876,
        "meta_bstar": 0.00065084955,
        "meta_mean_motion_dot": 8.17e-06,
        "meta_mean_motion_ddot": 0,
        "tle_line1": "1 34472U 93036TR  25357.65331522  .00000817  00000+0  65085-3 0  9992",
        "tle_line2": "2 34472  74.0847  80.1960 0327759 208.8312 149.4350 13.70348923838761"
      },
      "geometry": {
        "type": "Point",
        "coordinates": [
          -134.1987781055276,
          62.44917550628198
        ]
      }
    },
    {
      "type": "Feature",
      "properties": {
        "norad_id": 34474,
        "name": "COSMOS 2251 DEB",
        "group": "cosmos-2251-debris",
        "lat": -34.09821233167769,
        "lon": -65.33330381218265,
        "alt_km": 787.2211966419945,
        "timestamp": "2025-12-24T09:46:31.399384+00:00",
        "meta_object_name": "COSMOS 2251 DEB",
        "meta_object_id": "1993-036TT",
        "meta_epoch": "2025-12-24T03:11:05.033760",
        "meta_mean_motion": 14.0650459,
        "meta_eccentricity": 0.0199338,
        "meta_inclination": 74.0792,
        "meta_ra_of_asc_node": 306.2877,
        "meta_arg_of_pericenter": 17.3945,
        "meta_mean_anomaly": 358.9115,
        "meta_ephemeris_type": 0,
        "meta_classification_type": "U",
        "meta_norad_cat_id": 34474,
        "meta_element_set_no": 999,
        "meta_rev_at_epoch": 85669,
        "meta_bstar": 0.002453,
        "meta_mean_motion_dot": 4.838e-05,
        "meta_mean_motion_ddot": 0,
        "tle_line1": "1 34474U 93036TT  25358.13269715  .00004838  00000+0  24530-2 0  9998",
        "tle_line2": "2 34474  74.0792 306.2877 0199338  17.3945 358.9115 14.06504590856698"
      },
      "geometry": {
        "type": "Point",
        "coordinates": [
          -65.33330381218265,
          -34.09821233167769
        ]
      }
    },
    {
      "type": "Feature",
      "properties": {
        "norad_id": 34476,
        "name": "COSMOS 2251 DEB",
        "group": "cosmos-2251-debris",
        "lat": -1.1898638232439638,
        "lon": 62.49580933609492,
        "alt_km": 906.1203630612763,
        "timestamp": "2025-12-24T09:46:31.399394+00:00",
        "meta_object_name": "COSMOS 2251 DEB",
        "meta_object_id": "1993-036TV",
        "meta_epoch": "2025-12-23T04:15:02.567520",
        "meta_mean_motion": 13.82132648,
        "meta_eccentricity": 0.03222242,
        "meta_inclination": 74.0063,
        "meta_ra_of_asc_node": 64.9101,
        "meta_arg_of_pericenter": 282.3311,
        "meta_mean_anomaly": 74.192,
        "meta_ephemeris_type": 0,
        "meta_classification_type": "U",
        "meta_norad_cat_id": 34476,
        "meta_element_set_no": 999,
        "meta_rev_at_epoch": 83782,
        "meta_bstar": 0.0037798313,
        "meta_mean_motion_dot": 6.03e-05,
        "meta_mean_motion_ddot": 0,
        "tle_line1": "1 34476U 93036TV  25357.17711305  .00006030  00000+0  37798-2 0  9996",
        "tle_line2": "2 34476  74.0063  64.9101 0322224 282.3311  74.1920 13.82132648837821"
      },
      "geometry": {
        "type": "Point",
        "coordinates": [
          62.49580933609492,
          -1.1898638232439638
        ]
      }
    },
    {
      "type": "Feature",
      "properties": {
        "norad_id": 34477,
        "name": "COSMOS 2251 DEB",
        "group": "cosmos-2251-debris",
        "lat": 30.040863139648003,
        "lon": -142.29878928618228,
        "alt_km": 694.832376774948,
        "timestamp": "2025-12-24T09:46:31.399406+00:00",
        "meta_object_name": "COSMOS 2251 DEB",
        "meta_object_id": "1993-036TW",
        "meta_epoch": "2025-12-24T02:37:15.120192",
        "meta_mean_motion": 14.56938622,
        "meta_eccentricity": 0.0076712,
        "meta_inclination": 73.9783,
        "meta_ra_of_asc_node": 47.8344,
        "meta_arg_of_pericenter": 232.8802,
        "meta_mean_anomaly": 153.5903,
        "meta_ephemeris_type": 0,
        "meta_classification_type": "U",
        "meta_norad_cat_id": 34477,
        "meta_element_set_no": 999,
        "meta_rev_at_epoch": 88791,
        "meta_bstar": 0.00075411,
        "meta_mean_motion_dot": 3.494e-05,
        "meta_mean_motion_ddot": 0,
        "tle_line1": "1 34477U 93036TW  25358.10920278  .00003494  00000+0  75411-3 0  9998",
        "tle_line2": "2 34477  73.9783  47.8344 0076712 232.8802 153.5903 14.56938622887917"
      },
      "geometry": {
        "type": "Point",
        "coordinates": [
          -142.29878928618228,
          30.040863139648003
        ]
      }
    },
    {
      "type": "Feature",
      "properties": {
        "norad_id": 34478,
        "name": "COSMOS 2251 DEB",
        "group": "cosmos-2251-debris",
        "lat": 29.90125431952103,
        "lon": -7.663649735943309,
        "alt_km": 560.3696795470423,
        "timestamp": "2025-12-24T09:46:31.399419+00:00",
        "meta_object_name": "COSMOS 2251 DEB",
        "meta_object_id": "1993-036TX",
        "meta_epoch": "2025-12-23T17:58:35.156064",
        "meta_mean_motion": 15.08914731,
        "meta_eccentricity": 0.00336981,
        "meta_inclination": 74.0416,
        "meta_ra_of_asc_node": 344.2204,
        "meta_arg_of_pericenter": 201.8966,
        "meta_mean_anomaly": 215.0748,
        "meta_ephemeris_type": 0,
        "meta_classification_type": "U",
        "meta_norad_cat_id": 34478,
        "meta_element_set_no": 999,
        "meta_rev_at_epoch": 89139,
        "meta_bstar": 0.0030597457,
        "meta_mean_motion_dot": 0.00049206,
        "meta_mean_motion_ddot": 0,
        "tle_line1": "1 34478U 93036TX  25357.74901801  .00049206  00000+0  30597-2 0  9995",
        "tle_line2": "2 34478  74.0416 344.2204 0033698 201.8966 215.0748 15.08914731891396"
      },
      "geometry": {
        "type": "Point",
        "coordinates": [
          -7.663649735943309,
          29.90125431952103
        ]
      }
    },
    {
      "type": "Feature",
      "properties": {
        "norad_id": 34481,
        "name": "COSMOS 2251 DEB",
        "group": "cosmos-2251-debris",
        "lat": 39.24701612040063,
        "lon": 45.656039167561936,
        "alt_km": 827.8293573675073,
        "timestamp": "2025-12-24T09:46:31.399431+00:00",
        "meta_object_name": "COSMOS 2251 DEB",
        "meta_object_id": "1993-036UA",
        "meta_epoch": "2025-12-24T03:10:36.908832",
        "meta_mean_motion": 14.32589508,
        "meta_eccentricity": 0.0070278,
        "meta_inclination": 73.9789,
        "meta_ra_of_asc_node": 32.5837,
        "meta_arg_of_pericenter": 204.799,
        "meta_mean_anomaly": 219.317,
        "meta_ephemeris_type": 0,
        "meta_classification_type": "U",
        "meta_norad_cat_id": 34481,
        "meta_element_set_no": 999,
        "meta_rev_at_epoch": 87612,
        "meta_bstar": 0.00056946,
        "meta_mean_motion_dot": 1.563e-05,
        "meta_mean_motion_ddot": 0,
        "tle_line1": "1 34481U 93036UA  25358.13237163  .00001563  00000+0  56946-3 0  9997",
        "tle_line2": "2 34481  73.9789  32.5837 0070278 204.7990 219.3170 14.32589508876120"
      },
      "geometry": {
        "type": "Point",
        "coordinates": [
          45.656039167561936,
          39.24701612040063
        ]
      }
    }
  ]
}